1 33274U 08038A   17309.47338351 -.00000253  00000-0  00000+0 0  9992
2 33274   0.0108 290.2229 0001966 284.2251 144.8302  1.00271501 33849
1 33275U 08038B   17309.49117718  .00000034  00000-0  00000+0 0  9993
2 33275   0.0650  80.2816 0002711 159.7283 216.8482  1.00270811 33922
1 33278U 08039A   17309.71226471 -.00000143  00000-0  00000+0 0  9991
2 33278   3.0274   2.8239 0002800 227.6918 333.0648  1.00271915 33728
1 33373U 08044A   17309.39007605 -.00000223  00000-0  00000+0 0  9992
2 33373   0.0106 298.7931 0002052 287.2191 237.2594  1.00272324 33296
1 33376U 08045A   17309.14557545 -.00000141  00000-0  00000+0 0  9991
2 33376   0.0131 229.4926 0003484   5.3162 125.1586  1.00269847 33291
1 33414U 08055A   17309.09493919 -.00000239  00000-0  00000+0 0  9991
2 33414   0.0581  77.6629 0003551 175.4462 107.5908  1.00270309 33009
1 33436U 08057A   17309.36712659  .00000118  00000-0  00000+0 0  9997
2 33436   0.0539  98.2126 0004272  91.4716   6.4904  1.00272697 32933
1 33453U 08063A   17309.72688219  .00000055  00000-0  00000+0 0  9997
2 33453   0.0048 330.9979 0003390 259.8170 307.1805  1.00270736 32611
1 33459U 08065A   17308.84089249 +.00000086 +00000-0 +00000-0 0  9990
2 33459 000.0609 054.6374 0003487 151.2096 154.1749 01.00273193015818
1 33460U 08065B   17309.35257672  .00000122  00000-0  00000+0 0  9996
2 33460   0.0865  63.4918 0002597 178.0187 338.3147  1.00272514 32560
1 33463U 08066A   17309.32823689 -.00000199  00000-0  00000+0 0  9999
2 33463   2.4453  67.8378 0005781 220.5058 320.9508  1.00264838 32544
1 33595U 09007A   17309.06799932 -.00000090  00000-0  00000+0 0  9995
2 33595   0.0263 293.6015 0000893 359.1580 125.2560  1.00272425 32015
1 33596U 09007B   17309.48521535 -.00000294  00000-0  00000+0 0  9990
2 33596   3.2707  74.6712 0010893 244.8278  46.1761  0.99114705 31881
1 33749U 09008A   17309.79511740  .00000069  00000-0  00000+0 0  9991
2 33749   0.0285  13.7364 0002401 209.0421 291.7714  1.00271162 32020
1 33750U 09008B   17309.04907012  .00000154  00000-0  00000+0 0  9997
2 33750   0.0321   0.8074 0005689 222.1816 232.2773  1.00269813 32051
1 34111U 09009A   17309.15171076 -.00000252  00000-0  00000+0 0  9995
2 34111   0.0172 273.3063 0002684 294.4410 213.9204  1.00271359 31878
1 34264U 09010A   17309.20879505 -.00000271  00000-0  00000+0 0  9995
2 34264   6.0084  67.0409 0009839 296.7301  60.4688  0.99824243 31762
1 34710U 09016A   17309.53170965  .00000066  00000-0  00000+0 0  9998
2 34710   0.0684   5.9310 0004982 222.2661  18.1772  1.00271216 31423
1 34941U 09027A   17309.80604931 -.00000348  00000-0  00000+0 0  9995
2 34941   0.0593  87.2251 0002764 173.5990 182.8606  1.00270230 31086
1 35362U 09032A   17308.62336584 -.00000243 +00000-0 +00000-0 0  9999
2 35362 000.0332 176.0954 0003616 057.9321 125.9786 01.00270266030694
1 35491U 09033A   17309.16570938 -.00000095  00000-0  00000+0 0  9990
2 35491   0.2480 275.1421 0010831 313.0127 131.7917  1.00271796 30612
1 35493U 09034A   17309.43726499 -.00000203  00000-0  00000+0 0  9999
2 35493   0.0194 296.2778 0000499  73.0343 106.8472  1.00271736 30438
1 35496U 09035A   17309.14842119 -.00000061  00000-0  00000+0 0  9991
2 35496   2.7913 347.4634 0003004 245.7602 113.7933  1.00272382 30617
1 35696U 09042A   17309.81091111 -.00000311  00000-0  00000+0 0  9991
2 35696   0.0151 260.6835 0001351 293.2230 243.8024  1.00272565 30137
1 35755U 09044A   17308.52252067 -.00000346 +00000-0 +00000-0 0  9994
2 35755 000.0812 071.7437 0001159 135.9601 152.3299 01.00271900030057
1 35756U 09044B   17308.91368576 -.00000148  00000-0  00000+0 0  9990
2 35756   0.0629  61.5223 0003001 175.1954 292.5814  1.00269942 30085
1 35812U 09046A   17308.56393542 -.00000359  00000-0  00000+0 0  9991
2 35812   0.0164  32.3160 0002374 222.3584 105.3392  1.00271774 30127
1 35873U 09050A   17309.81090920 -.00000260  00000-0  00000+0 0  9997
2 35873   0.0534  94.3498 0002630 141.4750  28.6616  1.00271083 29811
1 35942U 09054A   17309.39018264 -.00000285  00000-0  00000+0 0  9999
2 35942   0.0515 106.3329 0003989  85.9100 292.0561  1.00273868 29643
1 35943U 09054B   17308.95101728 +.00000023 +00000-0 +00000-0 0  9999
2 35943 000.0555 083.2570 0003045 160.7095 205.7853 01.00270737029756
1 36032U 09058A   17308.71901777 +.00000070 +00000-0 +00000-0 0  9991
2 36032 000.0572 080.6975 0002580 139.0356 140.2874 01.00270235029385
1 36033U 09058B   17309.18834628 -.00000011  00000-0  00000+0 0  9999
2 36033   0.0492  97.4702 0002349 150.1805 223.9445  1.00271710 29424
1 36097U 09064A   17309.00151993 -.00000275  00000-0  00000+0 0  9996
2 36097   0.0108 262.5658 0002799 325.6725 131.7378  1.00270500 29160
1 36101U 09065A   17309.54285462  .00000153  00000-0  00000+0 0  9995
2 36101   0.0728  26.5356 0004640 206.5065  43.2740  1.00269827 29269
1 36106U 09067A   17309.82694659 -.00000189  00000-0  00000+0 0  9995
2 36106   0.0125 294.7214 0002585 283.6130 209.7896  1.00272265 29061
1 36131U 09075A   17309.52981781 -.00000106  00000-0  00000+0 0  9993
2 36131   0.0055 279.8755 0000523 256.4051 316.6816  1.00272059 28841
1 36287U 10001A   17308.85180775 -.00000284  00000-0  00000+0 0  9992
2 36287   1.4796   8.9159 0004592 184.4009 297.6009  1.00276022 28624
1 36358U 10002A   17309.51612503 -.00000186  00000-0  00000+0 0  9996
2 36358   0.0239 266.2388 0003258   6.4129  43.1191  1.00271076 28469
1 36395U 10005A   17309.53212816 -.00000031  00000-0  00000+0 0  9994
2 36395  28.9220 137.8993 0001751 101.3721 255.5798  1.00272795 28486
1 36397U 10006A   17309.43243758 -.00000247  00000-0  00000+0 0  9994
2 36397   0.0186  87.0904 0002623 136.3358 260.9038  1.00269421 28198
1 36411U 10008A   17309.24979798  .00000083  00000-0  00000+0 0  9999
2 36411   0.2264 273.4079 0004739 291.2138 155.3946  1.00284276 28140
1 36499U 10010A   17308.84354841 -.00000001  00000-0  00000+0 0  9990
2 36499   0.0104 270.2667 0002895 316.1574   2.6552  1.00271356 27980
1 36516U 10016A   17309.53425514 -.00000117  00000-0  00000+0 0  9997
2 36516   0.0166 341.3113 0002315 246.8737 268.1278  1.00271863 27595
1 36581U 10021A   17309.04285388  .00000136  00000-0  00000+0 0  9994
2 36581   0.0533 308.7718 0002957 277.7736 216.8633  1.00272686 27103
1 36582U 10021B   17309.83263781  .00000085  00000-0  00000+0 0  9998
2 36582   0.0407 278.1676 0002361 322.6716 117.4137  1.00268094 27455
1 36590U 10024A   17308.75601632 -.00000356  00000-0  00000+0 0  9993
2 36590   1.4501  30.8698 0007422 300.3368  95.7326  1.00272702 27235
1 36592U 10025A   17309.20813052  .00000143  00000-0  00000+0 0  9991
2 36592   0.0101 206.7817 0004730   1.6138 297.1793  1.00272596 27350
1 36744U 10032A   17309.45118734 -.00000346  00000-0  00000+0 0  9996
2 36744   0.0497  97.6909 0000926 142.2961  95.5674  1.00270529 27100
1 36745U 10032B   17309.50532111  .00000151  00000-0  00000+0 0  9995
2 36745   0.0554 359.0506 0003021 218.7687  39.5293  1.00270414 27081
1 36792U 10034A   17309.38032137 -.00000284  00000-0  00000+0 0  9996
2 36792   0.0214  73.5572 0002261 163.6183 242.8886  1.00270705 26855
1 36828U 10036A   17309.85506037 -.00000105  00000-0  10000-3 0  9992
2 36828  54.1626 192.1066 0060523 228.6408  50.8303  1.00285645 26675
1 36830U 10037A   17309.02684951 -.00000059  00000-0  00000+0 0  9990
2 36830   0.0531 153.8696 0004009  61.0085 192.2626  1.00271664 26746
1 36831U 10037B   17307.87149797 +.00000019 +00000-0 +00000-0 0  9992
2 36831 000.0183 323.2564 0005587 278.1438 118.5839 01.00271087026759
1 37150U 10042A   17309.86565843 -.00000357  00000-0  00000+0 0  9993
2 37150   0.0402 142.9531 0001274  85.3162 253.7477  1.00273930 26365
1 37185U 10053A   17308.80188111 -.00000206  00000-0  00000+0 0  9998
2 37185   0.0163 276.4773 0001587  81.2087 250.0415  1.00271838 25890
1 37207U 10056B   17308.97175116 -.00000352  00000-0  00000+0 0  9997
2 37207   0.0455 318.5012 0004031 318.2700 227.3536  1.00271229 25722
1 37210U 10057A   17309.19516291 -.00000113  00000-0  00000+0 0  9995
2 37210   0.9316  55.0752 0007681 182.5027  37.3819  1.00271090 25733
1 37218U 10061A   17309.08024997 -.00000123  00000-0  00000+0 0  9994
2 37218   3.0536 332.4703 0002716 214.1572 145.4631  1.00271476 25683
1 37234U 10064A   17309.86770392 -.00000341  00000-0  00000+0 0  9990
2 37234   0.0097 343.8242 0002820 315.3975 188.3050  1.00272124 25492
1 37237U 10065A   17309.15049396 -.00000235  00000-0  00000+0 0  9991
2 37237   0.0448  45.0213 0001939 174.2693 205.9944  1.00272345 25463
1 37238U 10065B   17309.32271458 -.00000004  00000-0  00000+0 0  9991
2 37238   0.0183 235.3878 0002676 340.0609  11.4939  1.00271581 25375
1 37256U 10068A   17309.22881222 -.00000215  00000-0  10000-3 0  9998
2 37256  52.9478 309.6076 0062116 205.9413  88.8779  1.00297025 25258
1 37258U 10069A   17308.85190999 +.00000061 +00000-0 +00000-0 0  9997
2 37258 000.0359 273.9298 0002894 343.1143 102.9631 01.00271174012497
1 37264U 10070A   17309.83657139 -.00000219  00000-0  00000+0 0  9994
2 37264   0.0682  99.9025 0004673 107.3521 109.1911  1.00269603 25122
1 37265U 10070B   17309.81646529 -.00000365  00000-0  00000+0 0  9996
2 37265   0.0103  27.0082 0002112 213.9813 214.2029  1.00271944 25141
1 37344U 11001A   17309.35788088 -.00000129  00000-0  00000+0 0  9993
2 37344   2.7228  77.3467 0003780 257.3369 102.5199  1.00155973 24926
1 37384U 11013A   17309.25194414 -.00000186  00000-0  10000-3 0  9991
2 37384  58.0085  71.4638 0032637 202.4386 343.0655  1.00275678 24130
1 37392U 11016A   17309.04907012  .00000154  00000-0  00000+0 0  9995
2 37392   0.0169 237.8709 0001813  10.9754 206.1346  1.00273852 23978
1 37393U 11016B   17309.34771463  .00000099  00000-0  00000+0 0  9996
2 37393   0.0153 282.0501 0002603 309.1945 351.2462  1.00271953 24014
1 37602U 11021A   17309.20324022 -.00000282  00000-0  00000+0 0  9990
2 37602   0.0472  76.0006 0002720 210.3097 128.5183  1.00270577 24244
1 37605U 11022A   17309.52129434  .00000082  00000-0  00000+0 0  9996
2 37605   0.0551 271.7210 0008269 336.5453  39.4627  1.00271578 23690
